KUIPER-00104            
1 65142U 25171L   25332.00002315 -.01362723  00000+0 -13185+0 0  9992
2 65142  51.8927 247.3444 0004350 180.1744 265.7566 14.95734481  3968
KUIPER-00105            
1 65143U 25171M   25331.22671778  .00024342  00000+0  32065-2 0  9991
2 65143  51.8993 258.7446 0013180 125.3272 234.8924 14.79932282 17611
KUIPER-00106            
1 65144U 25171N   25331.22564059  .00006798  00000+0  61673-3 0  9998
2 65144  51.8928 260.3189 0009982 117.0913 243.1076 14.96291215 17599
KUIPER-00107            
1 65145U 25171P   25332.00002315 -.00988481  00000+0 -57152-1 0  9993
2 65145  51.8891 242.1385 0006594 166.7476 218.4458 15.14741821  5428
KUIPER-00108            
1 65146U 25171Q   25332.00002315 -.00038037  00000+0 -49827-2 0  9998
2 65146  51.9006 250.2610 0007904 140.1345 173.8382 14.79955872  5610
KUIPER-00109            
1 65147U 25171R   25332.00002315 -.00035541  00000+0 -30717-2 0  9994
2 65147  51.8965 245.9600 0012190 154.6397 245.0373 14.96645613  4286
KUIPER-00110            
1 65148U 25171S   25332.00002315 -.00025618  00000+0 -35978-2 0  9993
2 65148  51.8977 257.4683 0011702 131.3437  46.0112 14.76795362  3671
KUIPER-00111            
1 65149U 25171T   25331.21836994  .00005478  00000+0  74804-3 0  9996
2 65149  51.8967 266.2008 0009727 136.8830 223.2895 14.79862546 17507
